[{"OBJECT_NAME":"STARLINK-30052","OBJECT_ID":"2023-119K","EPOCH":"2026-03-09T22:00:01.999584","MEAN_MOTION":15.18817261,"ECCENTRICITY":0.0001361,"INCLINATION":42.9994,"RA_OF_ASC_NODE":79.4905,"ARG_OF_PERICENTER":256.0949,"MEAN_ANOMALY":348.0898,"EPHEMERIS_TYPE":0,"CLASSIFICATION_TYPE":"U","NORAD_CAT_ID":57611,"ELEMENT_SET_NO":999,"REV_AT_EPOCH":572,"BSTAR":0.053443655,"MEAN_MOTION_DOT":0.01240173,"MEAN_MOTION_DDOT":0},{"OBJECT_NAME":"OBJECT D","OBJECT_ID":"2021-050D","EPOCH":"2026-03-09T22:38:42.248256","MEAN_MOTION":15.23648479,"ECCENTRICITY":0.00079782,"INCLINATION":97.3398,"RA_OF_ASC_NODE":147.2286,"ARG_OF_PERICENTER":192.9806,"MEAN_ANOMALY":167.1228,"EPHEMERIS_TYPE":0,"CLASSIFICATION_TYPE":"U","NORAD_CAT_ID":48843,"ELEMENT_SET_NO":999,"REV_AT_EPOCH":26385,"BSTAR":0.00026174716,"MEAN_MOTION_DOT":6.21e-5,"MEAN_MOTION_DDOT":0}]
